{
  "type": "FeatureCollection",
  "name": "TARDIS_Locations",
  "crs": {
    "type": "name",
    "properties": {
      "name": "urn:ogc:def:crs:OGC:1.3:CRS84"
    }
  },
  "features": [
    {
      "type": "Feature",
      "properties": {
        "doctor": "The First Doctor",
        "year": "1963"
      },
      "geometry": {
        "type": "Point",
        "coordinates": [-0.1278, 51.5074]
      }
    },
    {
      "type": "Feature",
      "properties": {
        "doctor": "The Fourth Doctor",
        "year": "1977"
      },
      "geometry": {
        "type": "Point",
        "coordinates": [-0.1246, 51.5007]
      }
    },
    {
      "type": "Feature",
      "properties": {
        "doctor": "The Tenth Doctor",
        "year": "2006"
      },
      "geometry": {
        "type": "Point",
        "coordinates": [-0.1420, 51.5014]
      }
    },
    {
      "type": "Feature",
      "properties": {
        "doctor": "The Eleventh Doctor",
        "year": "2011"
      },
      "geometry": {
        "type": "Point",
        "coordinates": [-0.1340, 51.5094]
      }
    },
    {
      "type": "Feature",
      "properties": {
        "doctor": "The Thirteenth Doctor",
        "year": "2018"
      },
      "geometry": {
        "type": "Point",
        "coordinates": [-0.1195, 51.5033]
      }
    },
    {
      "type": "Feature",
      "properties": {
        "doctor": "The Fifteenth Doctor",
        "year": "2024"
      },
      "geometry": {
        "type": "Point",
        "coordinates": [-0.0761, 51.5081]
      }
    }
  ]
}
